# This dictionary was parsed from the contents of this website:
# old: http://www.cfa.harvard.edu/iau/Ephemerides/Comets/Soft03Cmt.txt
# new: http://www.minorplanetcenter.net/iau/Ephemerides/Comets/Soft03Cmt.txt
# it can be used with pyephem to create objects which can give the
# position of these objects for any date 
# For specific use with UpdateEphemeris

ephemerisComets = {
 '103P/Hartley': '103P/Hartley,e,13.6195,219.7525,181.2339,3.470564,0.1524418,0.69488100,46.1476,08/27.0/2011,2000,g  8.5,8.0\n',
 '104P/Kowal': '104P/Kowal,e,10.2716,235.5024,200.5717,3.261210,0.1673540,0.63838443,80.2090,08/27.0/2011,2000,g 12.5,4.0\n',
 '105P/Singer Brewster': '105P/Singer Brewster,e,9.1709,192.4194,46.6897,3.471673,0.1523687,0.40929249,332.0853,08/27.0/2011,2000,g 11.5,6.0\n',
 '10P/Tempel': '10P/Tempel,e,12.0238,117.8032,195.6153,3.066319,0.1835600,0.53628236,76.7624,08/27.0/2011,2000,g  5.0,10.0\n',
 '110P/Hartley': '110P/Hartley,e,11.6873,287.7061,167.5965,3.613913,0.1434622,0.31345366,186.5493,08/27.0/2011,2000,g  1.0,12.0\n',
 '111P/Helin-Roman-Crockett': '111P/Helin-Roman-Crockett,e,4.1854,90.4396,6.5011,4.169119,0.1157811,0.11757606,296.7640,08/27.0/2011,2000,g  5.0,8.0\n',
 '115P/Maury': '115P/Maury,e,11.7060,176.6029,120.0616,4.248436,0.1125539,0.52098695,355.3918,08/27.0/2011,2000,g 10.5,6.0\n',
 '116P/Wild': '116P/Wild,e,3.6126,21.0403,173.6601,3.478186,0.1519410,0.37361572,116.9198,08/27.0/2011,2000,g  2.5,10.0\n',
 '117P/Helin-Roman-Alu': '117P/Helin-Roman-Alu,e,8.6990,58.9009,222.9826,4.090936,0.1191160,0.25407743,247.5273,08/27.0/2011,2000,g  2.5,8.0\n',
 '118P/Shoemaker-Levy': '118P/Shoemaker-Levy,e,8.5083,151.7953,302.1454,3.465781,0.1527574,0.42784893,91.8910,08/27.0/2011,2000,g 12.0,4.0\n',
 '119P/Parker-Hartley': '119P/Parker-Hartley,e,5.1957,244.0924,181.1191,4.279581,0.1113274,0.29185077,254.3406,08/27.0/2011,2000,g  3.5,8.0\n',
 '120P/Mueller': '120P/Mueller,e,8.7973,4.4573,30.0347,4.127635,0.1175309,0.33855951,295.9178,08/27.0/2011,2000,g 12.0,4.0\n',
 '123P/West-Hartley': '123P/West-Hartley,e,15.3571,46.5989,102.8236,3.859524,0.1299881,0.44840433,6.9580,08/27.0/2011,2000,g  4.0,10.0\n',
 '128P/Shoemaker-Holt': '128P/Shoemaker-Holt,e,4.3638,214.3619,210.3304,4.507677,0.1029852,0.32162793,157.9547,08/27.0/2011,2000,g  8.5,4.0\n',
 '129P/Shoemaker-Levy': '129P/Shoemaker-Levy,e,3.5696,187.8878,309.2713,4.323129,0.1096495,0.12458656,262.0264,08/27.0/2011,2000,g 11.0,4.0\n',
 '130P/McNaught-Hughes': '130P/McNaught-Hughes,e,7.3073,89.8131,224.3739,3.536537,0.1481961,0.40674354,9.3667,08/27.0/2011,2000,g 10.0,6.0\n',
 '131P/Mueller': '131P/Mueller,e,7.3556,214.2202,179.5796,3.683022,0.1394433,0.34349445,341.3726,08/27.0/2011,2000,g 11.0,4.0\n',
 '139P/Vaisala-Oterma': '139P/Vaisala-Oterma,e,2.3300,242.3277,165.8834,4.523984,0.1024289,0.24762501,125.2372,08/27.0/2011,2000,g  9.5,4.0\n',
 '142P/Ge-Wang': '142P/Ge-Wang,e,12.3068,176.5155,175.6062,4.964477,0.0891033,0.49897689,40.4542,08/27.0/2011,2000,g  8.5,6.0\n',
 '143P/Kowal-Mrkos': '143P/Kowal-Mrkos,e,4.6892,245.3340,320.8834,4.300191,0.1105280,0.40888514,89.0899,08/27.0/2011,2000,g 13.5,2.0\n',
 '152P/Helin-Lawrence': '152P/Helin-Lawrence,e,9.8662,91.9191,163.8344,4.499936,0.1032511,0.30752868,327.2259,08/27.0/2011,2000,g 11.5,4.0\n',
 '157P/Tritton': '157P/Tritton,e,7.2777,300.0710,148.7720,3.410672,0.1564747,0.60145081,86.4280,08/27.0/2011,2000,g 10.0,4.0\n',
 '158P/Kowal-LINEAR': '158P/Kowal-LINEAR,e,7.9082,137.3090,231.9914,4.719906,0.0961179,0.03024034,322.5914,08/27.0/2011,2000,g  9.0,4.0\n',
 '159P/LONEOS': '159P/LONEOS,e,23.4773,55.1073,4.6672,5.865212,0.0693871,0.38206380,189.3933,08/27.0/2011,2000,g 10.0,4.0\n',
 '160P/LINEAR': '160P/LINEAR,e,17.2745,337.0110,18.1448,3.969094,0.1246428,0.47923237,311.5875,08/27.0/2011,2000,g 15.5,2.0\n',
 '162P/Siding Spring': '162P/Siding Spring,e,27.8184,31.2333,356.3603,3.054320,0.1846428,0.59603743,99.0654,08/27.0/2011,2000,g 12.0,4.0\n',
 '164P/Christensen': '164P/Christensen,e,16.2612,88.3265,325.8498,3.652427,0.1411990,0.54130860,12.0952,08/27.0/2011,2000,g 11.0,4.0\n',
 '166P/NEAT': '166P/NEAT,e,15.3611,64.3716,321.9426,13.87385,0.0190725,0.38290203,64.5312,08/27.0/2011,2000,g  5.5,4.0\n',
 '167P/CINEOS': '167P/CINEOS,e,19.0975,295.8324,344.7841,16.26020,0.0150319,0.27197755,56.4617,08/27.0/2011,2000,g  9.5,2.0\n',
 '169P/NEAT': '169P/NEAT,e,11.3000,176.1764,217.9887,2.606880,0.2341653,0.76692826,148.5833,08/27.0/2011,2000,g 16.0,2.0\n',
 '173P/Mueller': '173P/Mueller,e,16.5016,100.5038,29.4336,5.692446,0.0725698,0.26109846,86.9693,08/27.0/2011,2000,g  7.5,4.0\n',
 '174P/Echeclus': '174P/Echeclus,e,4.3416,173.4007,162.8384,10.72204,0.0280730,0.45750205,322.5662,08/27.0/2011,2000,g  9.5,2.0\n',
 '176P/LINEAR': '176P/LINEAR,e,0.2353,346.3842,35.6239,3.197957,0.1723436,0.19437564,9.8652,08/27.0/2011,2000,g 15.0,2.0\n',
 '17P/Holmes': '17P/Holmes,e,19.0973,326.8250,24.4499,3.621346,0.1430207,0.43257457,225.1366,08/27.0/2011,2000,g 10.0,6.0\n',
 '183P/Korlevic-Juric': '183P/Korlevic-Juric,e,18.7376,5.8487,161.0236,4.496035,0.1033855,0.13477452,125.0760,08/27.0/2011,2000,g 12.5,2.0\n',
 '186P/Garradd': '186P/Garradd,e,28.5388,327.5685,287.3729,4.950120,0.0894912,0.12674086,106.0455,08/27.0/2011,2000,g  7.5,4.0\n',
 '187P/LINEAR': '187P/LINEAR,e,13.6321,111.4557,135.9564,4.506772,0.1030162,0.17174946,106.5146,08/27.0/2011,2000,g  9.0,4.0\n',
 '195P/Hill': '195P/Hill,e,36.3831,243.1951,249.5107,6.476225,0.0598027,0.31512434,56.7428,08/27.0/2011,2000,g  8.5,4.0\n',
 '198P/ODAS': '198P/ODAS,e,1.3431,358.5630,69.0517,3.596531,0.1445035,0.44495021,335.0169,08/27.0/2011,2000,g 12.5,4.0\n',
 '200P/Larsen': '200P/Larsen,e,12.1147,234.7824,134.0539,4.917078,0.0903948,0.33342090,99.0390,08/27.0/2011,2000,g  9.0,4.0\n',
 '203P/Korlevic': '203P/Korlevic,e,2.9741,290.5425,154.6573,4.652236,0.0982226,0.31589390,55.4223,08/27.0/2011,2000,g 14.5,2.0\n',
 '213P/Van Ness': '213P/Van Ness,e,10.2392,312.6715,3.3421,3.421702,0.1557187,0.37966494,11.1671,08/27.0/2011,2000,g 10.5,4.0\n',
 '215P/NEAT': '215P/NEAT,e,12.7935,75.3105,223.1473,4.036915,0.1215150,0.20339479,53.6726,08/27.0/2011,2000,g 11.0,4.0\n',
 '219P/LINEAR': '219P/LINEAR,e,11.5292,231.0282,107.6204,3.650212,0.1413276,0.35250966,76.3006,08/27.0/2011,2000,g 11.0,4.0\n',
 '21P/Giacobini-Zinner': '21P/Giacobini-Zinner,e,31.9105,195.3980,172.5952,3.517882,0.1493765,0.70705235,334.7966,08/27.0/2011,2000,g  9.0,6.0\n',
 '223P/Skiff': '223P/Skiff,e,27.0544,346.8240,37.8611,4.147710,0.1166787,0.41643547,44.0441,08/27.0/2011,2000,g 12.0,4.0\n',
 '227P/Catalina-LINEAR': '227P/Catalina-LINEAR,e,6.5251,49.8822,90.1090,3.589956,0.1449007,0.50018029,51.7764,08/27.0/2011,2000,g 16.5,2.0\n',
 '228P/LINEAR': '228P/LINEAR,e,7.9154,31.0662,114.7932,4.169230,0.1157765,0.17719272,0.3659,08/27.0/2011,2000,g 14.5,2.0\n',
 '231P/LINEAR-NEAT': '231P/LINEAR-NEAT,e,12.3257,133.0950,42.4556,4.025801,0.1220185,0.24665080,12.4943,08/27.0/2011,2000,g 14.5,2.0\n',
 '232P/Hill': '232P/Hill,e,14.6383,56.1206,53.4121,4.485655,0.1037445,0.33527614,72.0415,08/27.0/2011,2000,g 11.5,4.0\n',
 '234P/LINEAR': '234P/LINEAR,e,11.5158,179.7264,358.1732,3.816073,0.1322145,0.25061009,80.9436,08/27.0/2011,2000,g 12.0,4.0\n',
 '235P/LINEAR': '235P/LINEAR,e,8.8919,204.4885,333.6451,4.001111,0.1231497,0.31340291,64.4840,08/27.0/2011,2000,g 12.0,4.0\n',
 '237P/LINEAR': '237P/LINEAR,e,16.2430,251.9772,21.0752,3.739152,0.1363152,0.35562010,86.0241,08/27.0/2011,2000,g 14.5,2.0\n',
 '238P/Read': '238P/Read,e,1.2656,51.6421,325.2028,3.163511,0.1751661,0.25395143,29.7198,08/27.0/2011,2000,g 14.5,4.0\n',
 '240P/NEAT': '240P/NEAT,e,23.5216,74.9692,351.9694,3.862983,0.1298135,0.45014362,42.4005,08/27.0/2011,2000,g 12.0,4.0\n',
 '242P/Spahr': '242P/Spahr,e,32.5186,180.8537,247.5201,5.536657,0.0756541,0.28113503,343.3721,08/27.0/2011,2000,g  8.0,4.0\n',
 '243P/NEAT': '243P/NEAT,e,7.6373,87.6780,283.8249,3.834257,0.1312751,0.35956080,23.2517,08/27.0/2011,2000,g 12.5,4.0\n',
 '244P/Scotti': '244P/Scotti,e,2.2593,354.1926,92.4642,4.901914,0.0908146,0.20064888,346.7749,08/27.0/2011,2000,g  9.0,4.0\n',
 '246P/NEAT': '246P/NEAT,e,15.9709,78.7915,176.3042,4.026045,0.1220074,0.28504060,296.4087,08/27.0/2011,2000,g 10.5,4.0\n',
 '247P/LINEAR': '247P/LINEAR,e,13.6822,54.1225,47.3398,3.964835,0.1248436,0.62561029,29.3178,08/27.0/2011,2000,g 16.5,2.0\n',
 '248P/Gibbs': '248P/Gibbs,e,6.3705,207.7836,209.9244,5.970058,0.0675672,0.64036598,13.4627,08/27.0/2011,2000,g 14.0,4.0\n',
 '249P/LINEAR': '249P/LINEAR,e,8.4260,240.4709,64.2220,2.776713,0.2130137,0.81604079,28.3136,08/27.0/2011,2000,g 15.5,4.0\n',
 '250P/Larson': '250P/Larson,e,13.2934,73.7488,44.9055,3.732547,0.1366773,0.40684725,39.0343,08/27.0/2011,2000,g 14.5,4.0\n',
 '251P/LINEAR': '251P/LINEAR,e,23.4933,219.4847,31.0047,3.491593,0.1510666,0.50902572,36.3279,08/27.0/2011,2000,g 16.5,2.0\n',
 '27P/Crommelin': '27P/Crommelin,e,28.9565,250.6377,195.9809,9.203976,0.0352973,0.91874471,0.8186,08/27.0/2011,2000,g 12.0,8.0\n',
 '29P/Schwassmann-Wachmann': '29P/Schwassmann-Wachmann,e,9.3829,312.6006,50.1256,5.995225,0.0671422,0.04447012,173.7306,08/27.0/2011,2000,g  4.0,4.0\n',
 '30P/Reinmuth': '30P/Reinmuth,e,8.1229,119.7389,13.1732,3.775272,0.1343636,0.50121641,66.4403,08/27.0/2011,2000,g  9.5,6.0\n',
 '31P/Schwassmann-Wachmann': '31P/Schwassmann-Wachmann,e,4.5461,114.1792,17.9431,4.244670,0.1127037,0.19329987,37.3585,08/27.0/2011,2000,g  5.0,8.0\n',
 '36P/Whipple': '36P/Whipple,e,9.9347,182.3953,201.6808,4.173119,0.1156147,0.26009263,345.5439,08/27.0/2011,2000,g  8.5,6.0\n',
 '37P/Forbes': '37P/Forbes,e,8.9556,315.0334,329.3858,3.430533,0.1551178,0.54079791,343.5538,08/27.0/2011,2000,g 10.5,4.8\n',
 '43P/Wolf-Harrington': '43P/Wolf-Harrington,e,15.9690,249.8803,191.4963,3.349395,0.1607883,0.59470408,67.7212,08/27.0/2011,2000,g  8.0,6.0\n',
 '45P/Honda-Mrkos-Pajdusakova': '45P/Honda-Mrkos-Pajdusakova,e,4.2533,89.0102,326.2440,3.020767,0.1877276,0.82466693,353.8513,08/27.0/2011,2000,g 13.5,8.0\n',
